GSLV R/B                
1 54149U 22138AN  26063.30543674  .00005589  00000+0  48444-3 0  9991
2 54149  87.3887 168.1641 0022222 165.3258 194.8623 14.96730402183127
XRISM                   
1 57800U 23137A   26063.02731354  .00008362  00000+0  47679-3 0  9992
2 57800  31.0031 320.2862 0008161 341.2942  18.7396 15.11422447136931
ACS3                    
1 59588U 24077B   26063.45720899  .00025829  00000+0  20890-1 0  9991
2 59588  97.2108   5.7453 0055747  90.7142 270.0410 13.89335925 93474
SZ-21 MODULE            
1 66515U 25246C   26062.76916662  .00044751  00000+0  39281-3 0  9997
2 66515  41.4730 239.7930 0001447 287.9355  72.1329 15.68011820 17141
